{"fetched_at":"2026-03-29T16:36:15Z","count":15609,"tles":[{"name":"GLOBAL-18","line1":"1 52196U 22034B   26087.82982952  .00023354  00000+0  52916-3 0  9994","line2":"2 52196  52.9814 279.7440 0003832  21.0446 339.0715 15.43008111224549","category":"Other"}]}