{
  "norad_id": 52196,
  "name": "GLOBAL-18",
  "history": [
    {
      "epoch": "2026-03-28T19:54:57.270528Z",
      "apogee_km": 439.84906300002694,
      "perigee_km": 434.62521502995605,
      "latitude_deg": 8.884820568699558e-07,
      "longitude_deg": 154.76072026951815,
      "height_km": 435.683079612156,
      "semi_major_axis_km": 6815.374139014992,
      "eccentricity": 0.00038324,
      "inclination_deg": 52.9814,
      "raan_deg": 279.744,
      "arg_perigee_deg": 21.0446,
      "mean_anomaly_deg": 339.0715,
      "mean_motion_rev_day": 15.43008111
    }
  ]
}